KUIPER-00044            
1 64505U 25134F   25229.58335648 -.00003275  00000+0 -25067-3 0  9998
2 64505  51.8875  70.0600 0014707 318.0369 161.1449 14.98155534  9165
KUIPER-00046            
1 64506U 25134G   25229.58335648 -.00033821  00000+0 -19808-2 0  9994
2 64506  51.8790  68.2203 0010965 329.0431 340.5330 15.11154780  9210
KUIPER-00047            
1 64507U 25134H   25229.55921919  .00022474  00000+0  66436-3 0  9994
2 64507  51.8586  65.7243 0009385 327.8964  32.1449 15.34804804  9243
KUIPER-00048            
1 64508U 25134J   25229.55256093  .00030321  00000+0  83477-3 0  9993
2 64508  51.8761  65.0166 0003290 304.1047  55.9628 15.36897881  9257
KUIPER-00049            
1 64509U 25134K   25229.25949788  .00022234  00000+0  63372-3 0  9997
2 64509  51.8714  66.7731 0007295 301.6295  58.3979 15.35974046  9645
KUIPER-00050            
1 64510U 25134L   25229.26901698  .00030069  00000+0  86318-3 0  9998
2 64510  51.8700  66.8381 0007064 302.2080  57.8220 15.35579640  9203
KUIPER-00051            
1 64511U 25134M   25228.91670139  .00033888  00000+0  99707-3 0  9991
2 64511  51.8739  68.3883 0005036 294.6533 352.8253 15.34755896  9521
KUIPER-00052            
1 64512U 25134N   25228.96108157  .00073581  00000+0  10862-2 0  9991
2 64512  51.8776  65.5944 0005296 324.6204  35.4439 15.54678916  9188
