<?xml version="1.0" encoding="UTF-8"?>
<ndm xmlns:xsi="http://www.w3.org/2001/XMLSchema-instance" xsi:noNamespaceSchemaLocation="https://sanaregistry.org/r/ndmxml_unqualified/ndmxml-2.0.0-master-2.0.xsd">
<omm id="CCSDS_OMM_VERS" version="2.0">
<header><CREATION_DATE/><ORIGINATOR/></header><body><segment><metadata><OBJECT_NAME>KUIPER-00044</OBJECT_NAME><OBJECT_ID>2025-134F</OBJECT_ID><CENTER_NAME>EARTH</CENTER_NAME><REF_FRAME>TEME</REF_FRAME><TIME_SYSTEM>UTC</TIME_SYSTEM><MEAN_ELEMENT_THEORY>SGP4</MEAN_ELEMENT_THEORY></metadata><data><meanElements><EPOCH>2025-08-17T14:00:01.999872</EPOCH><MEAN_MOTION>14.98155534</MEAN_MOTION><ECCENTRICITY>.0014707</ECCENTRICITY><INCLINATION>51.8875</INCLINATION><RA_OF_ASC_NODE>70.0600</RA_OF_ASC_NODE><ARG_OF_PERICENTER>318.0369</ARG_OF_PERICENTER><MEAN_ANOMALY>161.1449</MEAN_ANOMALY></meanElements><tleParameters><EPHEMERIS_TYPE>0</EPHEMERIS_TYPE><CLASSIFICATION_TYPE>U</CLASSIFICATION_TYPE><NORAD_CAT_ID>64505</NORAD_CAT_ID><ELEMENT_SET_NO>999</ELEMENT_SET_NO><REV_AT_EPOCH>916</REV_AT_EPOCH><BSTAR>-.25067E-3</BSTAR><MEAN_MOTION_DOT>-.3275E-4</MEAN_MOTION_DOT><MEAN_MOTION_DDOT>0</MEAN_MOTION_DDOT></tleParameters></data></segment></body></omm>
<omm id="CCSDS_OMM_VERS" version="2.0">
<header><CREATION_DATE/><ORIGINATOR/></header><body><segment><metadata><OBJECT_NAME>KUIPER-00046</OBJECT_NAME><OBJECT_ID>2025-134G</OBJECT_ID><CENTER_NAME>EARTH</CENTER_NAME><REF_FRAME>TEME</REF_FRAME><TIME_SYSTEM>UTC</TIME_SYSTEM><MEAN_ELEMENT_THEORY>SGP4</MEAN_ELEMENT_THEORY></metadata><data><meanElements><EPOCH>2025-08-17T14:00:01.999872</EPOCH><MEAN_MOTION>15.11154780</MEAN_MOTION><ECCENTRICITY>.0010965</ECCENTRICITY><INCLINATION>51.8790</INCLINATION><RA_OF_ASC_NODE>68.2203</RA_OF_ASC_NODE><ARG_OF_PERICENTER>329.0431</ARG_OF_PERICENTER><MEAN_ANOMALY>340.5330</MEAN_ANOMALY></meanElements><tleParameters><EPHEMERIS_TYPE>0</EPHEMERIS_TYPE><CLASSIFICATION_TYPE>U</CLASSIFICATION_TYPE><NORAD_CAT_ID>64506</NORAD_CAT_ID><ELEMENT_SET_NO>999</ELEMENT_SET_NO><REV_AT_EPOCH>921</REV_AT_EPOCH><BSTAR>-.19808E-2</BSTAR><MEAN_MOTION_DOT>-.33821E-3</MEAN_MOTION_DOT><MEAN_MOTION_DDOT>0</MEAN_MOTION_DDOT></tleParameters></data></segment></body></omm>
<omm id="CCSDS_OMM_VERS" version="2.0">
<header><CREATION_DATE/><ORIGINATOR/></header><body><segment><metadata><OBJECT_NAME>KUIPER-00047</OBJECT_NAME><OBJECT_ID>2025-134H</OBJECT_ID><CENTER_NAME>EARTH</CENTER_NAME><REF_FRAME>TEME</REF_FRAME><TIME_SYSTEM>UTC</TIME_SYSTEM><MEAN_ELEMENT_THEORY>SGP4</MEAN_ELEMENT_THEORY></metadata><data><meanElements><EPOCH>2025-08-17T13:25:16.538016</EPOCH><MEAN_MOTION>15.34804804</MEAN_MOTION><ECCENTRICITY>.0009385</ECCENTRICITY><INCLINATION>51.8586</INCLINATION><RA_OF_ASC_NODE>65.7243</RA_OF_ASC_NODE><ARG_OF_PERICENTER>327.8964</ARG_OF_PERICENTER><MEAN_ANOMALY>32.1449</MEAN_ANOMALY></meanElements><tleParameters><EPHEMERIS_TYPE>0</EPHEMERIS_TYPE><CLASSIFICATION_TYPE>U</CLASSIFICATION_TYPE><NORAD_CAT_ID>64507</NORAD_CAT_ID><ELEMENT_SET_NO>999</ELEMENT_SET_NO><REV_AT_EPOCH>924</REV_AT_EPOCH><BSTAR>.66436E-3</BSTAR><MEAN_MOTION_DOT>.22474E-3</MEAN_MOTION_DOT><MEAN_MOTION_DDOT>0</MEAN_MOTION_DDOT></tleParameters></data></segment></body></omm>
<omm id="CCSDS_OMM_VERS" version="2.0">
<header><CREATION_DATE/><ORIGINATOR/></header><body><segment><metadata><OBJECT_NAME>KUIPER-00048</OBJECT_NAME><OBJECT_ID>2025-134J</OBJECT_ID><CENTER_NAME>EARTH</CENTER_NAME><REF_FRAME>TEME</REF_FRAME><TIME_SYSTEM>UTC</TIME_SYSTEM><MEAN_ELEMENT_THEORY>SGP4</MEAN_ELEMENT_THEORY></metadata><data><meanElements><EPOCH>2025-08-17T13:15:41.264352</EPOCH><MEAN_MOTION>15.36897881</MEAN_MOTION><ECCENTRICITY>.000329</ECCENTRICITY><INCLINATION>51.8761</INCLINATION><RA_OF_ASC_NODE>65.0166</RA_OF_ASC_NODE><ARG_OF_PERICENTER>304.1047</ARG_OF_PERICENTER><MEAN_ANOMALY>55.9628</MEAN_ANOMALY></meanElements><tleParameters><EPHEMERIS_TYPE>0</EPHEMERIS_TYPE><CLASSIFICATION_TYPE>U</CLASSIFICATION_TYPE><NORAD_CAT_ID>64508</NORAD_CAT_ID><ELEMENT_SET_NO>999</ELEMENT_SET_NO><REV_AT_EPOCH>925</REV_AT_EPOCH><BSTAR>.83477E-3</BSTAR><MEAN_MOTION_DOT>.30321E-3</MEAN_MOTION_DOT><MEAN_MOTION_DDOT>0</MEAN_MOTION_DDOT></tleParameters></data></segment></body></omm>
<omm id="CCSDS_OMM_VERS" version="2.0">
<header><CREATION_DATE/><ORIGINATOR/></header><body><segment><metadata><OBJECT_NAME>KUIPER-00049</OBJECT_NAME><OBJECT_ID>2025-134K</OBJECT_ID><CENTER_NAME>EARTH</CENTER_NAME><REF_FRAME>TEME</REF_FRAME><TIME_SYSTEM>UTC</TIME_SYSTEM><MEAN_ELEMENT_THEORY>SGP4</MEAN_ELEMENT_THEORY></metadata><data><meanElements><EPOCH>2025-08-17T06:13:40.616832</EPOCH><MEAN_MOTION>15.35974046</MEAN_MOTION><ECCENTRICITY>.0007295</ECCENTRICITY><INCLINATION>51.8714</INCLINATION><RA_OF_ASC_NODE>66.7731</RA_OF_ASC_NODE><ARG_OF_PERICENTER>301.6295</ARG_OF_PERICENTER><MEAN_ANOMALY>58.3979</MEAN_ANOMALY></meanElements><tleParameters><EPHEMERIS_TYPE>0</EPHEMERIS_TYPE><CLASSIFICATION_TYPE>U</CLASSIFICATION_TYPE><NORAD_CAT_ID>64509</NORAD_CAT_ID><ELEMENT_SET_NO>999</ELEMENT_SET_NO><REV_AT_EPOCH>964</REV_AT_EPOCH><BSTAR>.63372E-3</BSTAR><MEAN_MOTION_DOT>.22234E-3</MEAN_MOTION_DOT><MEAN_MOTION_DDOT>0</MEAN_MOTION_DDOT></tleParameters></data></segment></body></omm>
<omm id="CCSDS_OMM_VERS" version="2.0">
<header><CREATION_DATE/><ORIGINATOR/></header><body><segment><metadata><OBJECT_NAME>KUIPER-00050</OBJECT_NAME><OBJECT_ID>2025-134L</OBJECT_ID><CENTER_NAME>EARTH</CENTER_NAME><REF_FRAME>TEME</REF_FRAME><TIME_SYSTEM>UTC</TIME_SYSTEM><MEAN_ELEMENT_THEORY>SGP4</MEAN_ELEMENT_THEORY></metadata><data><meanElements><EPOCH>2025-08-17T06:27:23.067072</EPOCH><MEAN_MOTION>15.35579640</MEAN_MOTION><ECCENTRICITY>.0007064</ECCENTRICITY><INCLINATION>51.8700</INCLINATION><RA_OF_ASC_NODE>66.8381</RA_OF_ASC_NODE><ARG_OF_PERICENTER>302.2080</ARG_OF_PERICENTER><MEAN_ANOMALY>57.8220</MEAN_ANOMALY></meanElements><tleParameters><EPHEMERIS_TYPE>0</EPHEMERIS_TYPE><CLASSIFICATION_TYPE>U</CLASSIFICATION_TYPE><NORAD_CAT_ID>64510</NORAD_CAT_ID><ELEMENT_SET_NO>999</ELEMENT_SET_NO><REV_AT_EPOCH>920</REV_AT_EPOCH><BSTAR>.86318E-3</BSTAR><MEAN_MOTION_DOT>.30069E-3</MEAN_MOTION_DOT><MEAN_MOTION_DDOT>0</MEAN_MOTION_DDOT></tleParameters></data></segment></body></omm>
<omm id="CCSDS_OMM_VERS" version="2.0">
<header><CREATION_DATE/><ORIGINATOR/></header><body><segment><metadata><OBJECT_NAME>KUIPER-00051</OBJECT_NAME><OBJECT_ID>2025-134M</OBJECT_ID><CENTER_NAME>EARTH</CENTER_NAME><REF_FRAME>TEME</REF_FRAME><TIME_SYSTEM>UTC</TIME_SYSTEM><MEAN_ELEMENT_THEORY>SGP4</MEAN_ELEMENT_THEORY></metadata><data><meanElements><EPOCH>2025-08-16T22:00:03.000096</EPOCH><MEAN_MOTION>15.34755896</MEAN_MOTION><ECCENTRICITY>.0005036</ECCENTRICITY><INCLINATION>51.8739</INCLINATION><RA_OF_ASC_NODE>68.3883</RA_OF_ASC_NODE><ARG_OF_PERICENTER>294.6533</ARG_OF_PERICENTER><MEAN_ANOMALY>352.8253</MEAN_ANOMALY></meanElements><tleParameters><EPHEMERIS_TYPE>0</EPHEMERIS_TYPE><CLASSIFICATION_TYPE>U</CLASSIFICATION_TYPE><NORAD_CAT_ID>64511</NORAD_CAT_ID><ELEMENT_SET_NO>999</ELEMENT_SET_NO><REV_AT_EPOCH>952</REV_AT_EPOCH><BSTAR>.99707E-3</BSTAR><MEAN_MOTION_DOT>.33888E-3</MEAN_MOTION_DOT><MEAN_MOTION_DDOT>0</MEAN_MOTION_DDOT></tleParameters></data></segment></body></omm>
<omm id="CCSDS_OMM_VERS" version="2.0">
<header><CREATION_DATE/><ORIGINATOR/></header><body><segment><metadata><OBJECT_NAME>KUIPER-00052</OBJECT_NAME><OBJECT_ID>2025-134N</OBJECT_ID><CENTER_NAME>EARTH</CENTER_NAME><REF_FRAME>TEME</REF_FRAME><TIME_SYSTEM>UTC</TIME_SYSTEM><MEAN_ELEMENT_THEORY>SGP4</MEAN_ELEMENT_THEORY></metadata><data><meanElements><EPOCH>2025-08-16T23:03:57.447648</EPOCH><MEAN_MOTION>15.54678916</MEAN_MOTION><ECCENTRICITY>.0005296</ECCENTRICITY><INCLINATION>51.8776</INCLINATION><RA_OF_ASC_NODE>65.5944</RA_OF_ASC_NODE><ARG_OF_PERICENTER>324.6204</ARG_OF_PERICENTER><MEAN_ANOMALY>35.4439</MEAN_ANOMALY></meanElements><tleParameters><EPHEMERIS_TYPE>0</EPHEMERIS_TYPE><CLASSIFICATION_TYPE>U</CLASSIFICATION_TYPE><NORAD_CAT_ID>64512</NORAD_CAT_ID><ELEMENT_SET_NO>999</ELEMENT_SET_NO><REV_AT_EPOCH>918</REV_AT_EPOCH><BSTAR>.10862E-2</BSTAR><MEAN_MOTION_DOT>.73581E-3</MEAN_MOTION_DOT><MEAN_MOTION_DDOT>0</MEAN_MOTION_DDOT></tleParameters></data></segment></body></omm>

</ndm>
